IRIDIUM 150             
1 43257U 18030J   24248.41715311 -.00000735  00000+0 -26970-3 0  9999
2 43257  86.4010 202.4209 0001970  87.0854 273.0567 14.34222773336883
IRIDIUM 143             
1 43258U 18030K   24248.39811380  .00001661  00000+0  58596-3 0  9996
2 43258  86.4013 202.4952 0001995  93.2645 266.8779 14.34220156336817
IRIDIUM 161             
1 43478U 18047C   24247.80575079  .00001713  00000+0  50295-3 0  9991
2 43478  86.4549   0.6828 0001990  94.7339 265.4089 14.43292569331187
IRIDIUM 152             
1 43479U 18047D   24249.27783824  .00001164  00000+0  40842-3 0  9991
2 43479  86.4026 359.9279 0002057  93.9108 266.2323 14.34226278329336
IRIDIUM 147             
1 43480U 18047E   24247.67951350  .00000542  00000+0  18646-3 0  9992
2 43480  86.4026   0.5889 0002228  91.6164 268.5287 14.34218296329101
IRIDIUM 110             
1 43481U 18047F   24248.73237222  .00001012  00000+0  35407-3 0  9993
2 43481  86.4028   0.2242 0002347  81.9804 278.1658 14.34222849329242
IRIDIUM 162             
1 43482U 18047G   24249.32474638  .00001660  00000+0  48724-3 0  9999
2 43482  86.4549 359.9479 0002083  86.1357 274.0082 14.43294456331392
IRIDIUM 160             
1 43569U 18061A   24249.30613915  .00000060  00000+0  14201-4 0  9999
2 43569  86.4009 328.3804 0002400  92.2971 267.8499 14.34217944320223
